ATLAS CENTAUR 2         
1 00694U 63047A   26194.07723341  .00000727  00000+0  77506-4 0  9992
2 00694  30.3509 214.6027 0545695 105.8440 260.2983 14.12563146149365
THOR AGENA D R/B        
1 00733U 64002A   26193.90236647  .00000082  00000+0  46545-4 0  9990
2 00733  99.1155 214.0212 0031774 253.4716 106.2975 14.34075476256247
SL-3 R/B                
1 00877U 64053B   26193.71786049  .00000029  00000+0  30012-4 0  9993
2 00877  65.0780 324.6526 0080331 253.0964 106.1317 14.61438720285068
SL-8 R/B                
1 02802U 67045B   26194.17402984  .00000122  00000+0  41442-4 0  9994
2 02802  74.0112 113.7241 0063011  90.9406 269.8972 14.45694781107153
SL-8 R/B                
1 03230U 68040B   26193.92747131  .00001284  00000+0  95660-4 0  9995
2 03230  74.0291  57.6435 0025189 206.2060 153.7857 15.03934071108833
OAO 2                   
1 03597U 68110A   26193.23416046  .00000100  00000+0  32093-4 0  9998
2 03597  34.9937 289.8279 0004897 118.6147 241.5037 14.47361181 37156
ISIS 1                  
1 03669U 69009A   26193.86115906  .00000030  00000+0  14466-4 0  9992
2 03669  88.4451 141.5803 1707105 196.3675 157.4919 11.30436358362670
SERT 2                  
1 04327U 70009A   26193.80523896 -.00000027  00000+0  20090-4 0  9998
2 04327  99.2840 130.1437 0004442 195.4589 219.4909 13.58740851796888
SL-3 R/B                
1 05118U 71028B   26194.17002617  .00039897  00000+0  29896-3 0  9991
2 05118  81.2313 255.7663 0014543 188.9985 171.1016 15.72305764  8324
ASTEX 1                 
1 05560U 71089A   26193.93573850  .00000210  00000+0  53407-4 0  9997
2 05560  92.7004 192.1483 0016626  29.5688 330.6455 14.50870528880469
SL-8 R/B                
1 05730U 71119B   26193.72936834  .00004046  00000+0  20827-3 0  9992
2 05730  73.8886 301.5760 0542846 242.4056 112.0982 14.39714235673470
OAO 3 (COPERNICUS)      
1 06153U 72065A   26193.39909904  .00000143  00000+0  33631-4 0  9996
2 06153  35.0064 306.7496 0005924 101.2559 306.8044 14.60073955864433
ATLAS CENTAUR R/B       
1 06155U 72065B   26193.67831098  .00000374  00000+0  53984-4 0  9996
2 06155  35.0019 293.0970 0033801 341.6243  18.3236 14.77963658859769
SL-8 R/B                
1 08459U 75112B   26193.91594832  .00000125  00000+0  49611-4 0  9996
2 08459  74.0605 148.5412 0016285 211.8421 148.1750 14.38257489649877
SL-3 R/B                
1 10114U 77057B   26194.13601852  .00006704  00000+0  12837-3 0  9991
2 10114  97.5844  11.9445 0006993 177.4660 182.6627 15.48384287687720
SEASAT 1                
1 10967U 78064A   26194.03917141  .00000041  00000+0  49907-4 0  9993
2 10967 108.0182  28.5588 0001130 252.5360 107.5662 14.46259463524630
SL-14 R/B               
1 11267U 79011B   26193.99542315  .00000287  00000+0  25703-4 0  9991
2 11267  82.5252 337.6603 0015983   4.5451 355.5911 14.92037065547468
SL-8 R/B                
1 11574U 79089B   26193.65879809  .00000093  00000+0  36001-4 0  9999
2 11574  74.0670 219.7047 0015897 355.0777   5.0221 14.42414211454128
SL-14 R/B               
1 11672U 80005B   26193.95688495  .00000311  00000+0  28725-4 0  9997
2 11672  82.5135 188.3946 0017293 104.3265 255.9875 14.91048957495158
SL-8 R/B                
1 12139U 81003B   26194.05052685  .00013366  00000+0  31741-3 0  9998
2 12139  82.9359 173.7292 0250125 101.0498 261.8974 15.15016084333639
SL-3 R/B                
1 12465U 81046B   26194.16918985  .00007747  00000+0  16433-3 0  9990
2 12465  81.2311 138.7579 0015857 304.9348  55.0406 15.44750032457785
SL-3 R/B                
1 12904U 81103B   26194.14753127  .00002133  00000+0  90863-4 0  9999
2 12904  81.1576  66.1294 0011918 219.2070 140.8299 15.22479345992314
SL-3 R/B                
1 13068U 82013B   26194.17664666  .00002570  00000+0  10757-3 0  9992
2 13068  81.1732  13.5451 0022861 114.9701 245.3910 15.22952930423442
SL-3 R/B                
1 13154U 82039B   26194.13273705  .00001868  00000+0  11041-3 0  9998
2 13154  81.1507  71.1134 0028091 265.5416  94.2600 15.10691161400572
SL-3 R/B                
1 13403U 82079B   26194.14989569  .00002905  00000+0  11096-3 0  9995
2 13403  81.1447  44.7711 0024950 100.2084 260.1965 15.26001422396827
SL-14 R/B               
1 13553U 82092B   26193.98208987  .00000241  00000+0  24229-4 0  9999
2 13553  82.5667  24.1619 0018890 243.5739 276.7650 14.86764013347541
SL-3 R/B                
1 13819U 83010B   26194.01821844  .00009730  00000+0  17321-3 0  9999
2 13819  81.0994 208.1342 0013445 331.9648  28.0873 15.49874759377336
SL-3 R/B                
1 14208U 83075B   26194.17758834  .00006313  00000+0  15429-3 0  9999
2 14208  97.6101 203.7521 0022016 136.4279 223.8710 15.40954678349462
COSMOS 1536             
1 14699U 84013A   26193.94621360  .00004271  00000+0  16781-3 0  9996
2 14699  82.5452 343.1819 0013712 196.2844 163.7956 15.25328881291703
SL-14 R/B               
1 14820U 84027B   26193.86889932  .00000211  00000+0  21301-4 0  9994
2 14820  82.5430 127.6351 0016348 280.0323  79.9048 14.86078230266228
SL-8 R/B                
1 15483U 85006B   26193.90824244  .00000130  00000+0  51834-4 0  9992
2 15483  74.0451  30.7299 0019277 274.1696 198.9427 14.37844513172027
